[
    {
        "OBJECT_NAME": "COSMOS 2084",
        "OBJECT_ID": "1990-055A",
        "EPOCH": "2026-06-06T08:55:32.211840",
        "MEAN_MOTION": 15.06072304,
        "ECCENTRICITY": 0.00055715,
        "INCLINATION": 62.7909,
        "RA_OF_ASC_NODE": 33.0039,
        "ARG_OF_PERICENTER": 259.1304,
        "MEAN_ANOMALY": 100.9169,
        "EPHEMERIS_TYPE": 0,
        "CLASSIFICATION_TYPE": "U",
        "NORAD_CAT_ID": 20663,
        "ELEMENT_SET_NO": 999,
        "REV_AT_EPOCH": 94967,
        "BSTAR": 0.0001812536,
        "MEAN_MOTION_DOT": 2.46e-05,
        "MEAN_MOTION_DDOT": 0
    },
    {
        "OBJECT_NAME": "SL-6 R/B(2)",
        "OBJECT_ID": "1990-055D",
        "EPOCH": "2026-06-06T16:15:09.592704",
        "MEAN_MOTION": 15.03968302,
        "ECCENTRICITY": 0.00389773,
        "INCLINATION": 62.7841,
        "RA_OF_ASC_NODE": 311.1397,
        "ARG_OF_PERICENTER": 3.6864,
        "MEAN_ANOMALY": 356.4514,
        "EPHEMERIS_TYPE": 0,
        "CLASSIFICATION_TYPE": "U",
        "NORAD_CAT_ID": 20666,
        "ELEMENT_SET_NO": 999,
        "REV_AT_EPOCH": 95157,
        "BSTAR": 0.00016353143,
        "MEAN_MOTION_DOT": 2.099e-05,
        "MEAN_MOTION_DDOT": 0
    },
    {
        "OBJECT_NAME": "SL-8 R/B",
        "OBJECT_ID": "1990-078B",
        "EPOCH": "2026-06-06T12:46:55.679232",
        "MEAN_MOTION": 14.91925991,
        "ECCENTRICITY": 0.0352993,
        "INCLINATION": 82.9017,
        "RA_OF_ASC_NODE": 171.2678,
        "ARG_OF_PERICENTER": 74.3044,
        "MEAN_ANOMALY": 289.6817,
        "EPHEMERIS_TYPE": 0,
        "CLASSIFICATION_TYPE": "U",
        "NORAD_CAT_ID": 20775,
        "ELEMENT_SET_NO": 999,
        "REV_AT_EPOCH": 82253,
        "BSTAR": 0.00053935,
        "MEAN_MOTION_DOT": 0.00019142,
        "MEAN_MOTION_DDOT": 0
    },
    {
        "OBJECT_NAME": "SL-8 R/B",
        "OBJECT_ID": "1991-006B",
        "EPOCH": "2026-06-06T15:01:49.238976",
        "MEAN_MOTION": 13.77505131,
        "ECCENTRICITY": 0.0023195,
        "INCLINATION": 82.9418,
        "RA_OF_ASC_NODE": 103.8898,
        "ARG_OF_PERICENTER": 142.8174,
        "MEAN_ANOMALY": 30.0577,
        "EPHEMERIS_TYPE": 0,
        "CLASSIFICATION_TYPE": "U",
        "NORAD_CAT_ID": 21088,
        "ELEMENT_SET_NO": 999,
        "REV_AT_EPOCH": 77631,
        "BSTAR": 3.9051e-05,
        "MEAN_MOTION_DOT": 5.4e-07,
        "MEAN_MOTION_DDOT": 0
    },
    {
        "OBJECT_NAME": "OKEAN-3",
        "OBJECT_ID": "1991-039A",
        "EPOCH": "2026-06-06T15:15:32.456448",
        "MEAN_MOTION": 15.05281228,
        "ECCENTRICITY": 0.0014692,
        "INCLINATION": 82.5166,
        "RA_OF_ASC_NODE": 250.613,
        "ARG_OF_PERICENTER": 34.1296,
        "MEAN_ANOMALY": 326.0872,
        "EPHEMERIS_TYPE": 0,
        "CLASSIFICATION_TYPE": "U",
        "NORAD_CAT_ID": 21397,
        "ELEMENT_SET_NO": 999,
        "REV_AT_EPOCH": 87841,
        "BSTAR": 0.00016620758,
        "MEAN_MOTION_DOT": 2.409e-05,
        "MEAN_MOTION_DDOT": 0
    },
    {
        "OBJECT_NAME": "COSMOS 2151",
        "OBJECT_ID": "1991-042A",
        "EPOCH": "2026-06-06T20:32:56.578560",
        "MEAN_MOTION": 15.00409157,
        "ECCENTRICITY": 0.00136869,
        "INCLINATION": 82.4963,
        "RA_OF_ASC_NODE": 357.652,
        "ARG_OF_PERICENTER": 115.0054,
        "MEAN_ANOMALY": 245.2594,
        "EPHEMERIS_TYPE": 0,
        "CLASSIFICATION_TYPE": "U",
        "NORAD_CAT_ID": 21422,
        "ELEMENT_SET_NO": 999,
        "REV_AT_EPOCH": 87656,
        "BSTAR": 0.00011542985,
        "MEAN_MOTION_DOT": 1.48e-05,
        "MEAN_MOTION_DDOT": 0
    },
    {
        "OBJECT_NAME": "SL-14 R/B",
        "OBJECT_ID": "1991-042B",
        "EPOCH": "2026-06-06T16:29:11.538240",
        "MEAN_MOTION": 14.81895807,
        "ECCENTRICITY": 0.00157964,
        "INCLINATION": 82.4921,
        "RA_OF_ASC_NODE": 136.7425,
        "ARG_OF_PERICENTER": 312.5513,
        "MEAN_ANOMALY": 47.4366,
        "EPHEMERIS_TYPE": 0,
        "CLASSIFICATION_TYPE": "U",
        "NORAD_CAT_ID": 21423,
        "ELEMENT_SET_NO": 999,
        "REV_AT_EPOCH": 86625,
        "BSTAR": 5.2093409e-05,
        "MEAN_MOTION_DOT": 4.36e-06,
        "MEAN_MOTION_DDOT": 0
    },
    {
        "OBJECT_NAME": "ERS-1",
        "OBJECT_ID": "1991-050A",
        "EPOCH": "2026-06-06T19:23:46.553280",
        "MEAN_MOTION": 14.39510492,
        "ECCENTRICITY": 0.00308186,
        "INCLINATION": 98.78,
        "RA_OF_ASC_NODE": 178.2525,
        "ARG_OF_PERICENTER": 298.9835,
        "MEAN_ANOMALY": 60.8264,
        "EPHEMERIS_TYPE": 0,
        "CLASSIFICATION_TYPE": "U",
        "NORAD_CAT_ID": 21574,
        "ELEMENT_SET_NO": 999,
        "REV_AT_EPOCH": 82855,
        "BSTAR": 9.4269801e-05,
        "MEAN_MOTION_DOT": 2.49e-06,
        "MEAN_MOTION_DDOT": 0
    },
    {
        "OBJECT_NAME": "ARIANE 40 R/B",
        "OBJECT_ID": "1991-050F",
        "EPOCH": "2026-06-06T15:32:32.909568",
        "MEAN_MOTION": 14.42950877,
        "ECCENTRICITY": 0.00037712,
        "INCLINATION": 98.1879,
        "RA_OF_ASC_NODE": 206.4744,
        "ARG_OF_PERICENTER": 144.6128,
        "MEAN_ANOMALY": 215.5314,
        "EPHEMERIS_TYPE": 0,
        "CLASSIFICATION_TYPE": "U",
        "NORAD_CAT_ID": 21610,
        "ELEMENT_SET_NO": 999,
        "REV_AT_EPOCH": 83182,
        "BSTAR": 0.00010349542,
        "MEAN_MOTION_DOT": 3.05e-06,
        "MEAN_MOTION_DDOT": 0
    },
    {
        "OBJECT_NAME": "INTERCOSMOS 25",
        "OBJECT_ID": "1991-086A",
        "EPOCH": "2026-06-06T13:08:18.493728",
        "MEAN_MOTION": 12.12183565,
        "ECCENTRICITY": 0.1484428,
        "INCLINATION": 82.6057,
        "RA_OF_ASC_NODE": 256.2481,
        "ARG_OF_PERICENTER": 285.3665,
        "MEAN_ANOMALY": 58.8577,
        "EPHEMERIS_TYPE": 0,
        "CLASSIFICATION_TYPE": "U",
        "NORAD_CAT_ID": 21819,
        "ELEMENT_SET_NO": 999,
        "REV_AT_EPOCH": 50745,
        "BSTAR": 0.00015383,
        "MEAN_MOTION_DOT": 7.73e-06,
        "MEAN_MOTION_DDOT": 0
    },
    {
        "OBJECT_NAME": "SL-8 R/B",
        "OBJECT_ID": "1992-008B",
        "EPOCH": "2026-06-06T15:59:18.665664",
        "MEAN_MOTION": 13.75974083,
        "ECCENTRICITY": 0.00333148,
        "INCLINATION": 82.9269,
        "RA_OF_ASC_NODE": 201.6098,
        "ARG_OF_PERICENTER": 245.0382,
        "MEAN_ANOMALY": 233.2779,
        "EPHEMERIS_TYPE": 0,
        "CLASSIFICATION_TYPE": "U",
        "NORAD_CAT_ID": 21876,
        "ELEMENT_SET_NO": 999,
        "REV_AT_EPOCH": 72165,
        "BSTAR": 3.9874972e-05,
        "MEAN_MOTION_DOT": 5.4e-07,
        "MEAN_MOTION_DDOT": 0
    },
    {
        "OBJECT_NAME": "SL-8 R/B",
        "OBJECT_ID": "1992-020B",
        "EPOCH": "2026-06-06T14:27:35.682048",
        "MEAN_MOTION": 13.75547874,
        "ECCENTRICITY": 0.0030291,
        "INCLINATION": 82.9303,
        "RA_OF_ASC_NODE": 87.7189,
        "ARG_OF_PERICENTER": 51.2399,
        "MEAN_ANOMALY": 123.1741,
        "EPHEMERIS_TYPE": 0,
        "CLASSIFICATION_TYPE": "U",
        "NORAD_CAT_ID": 21938,
        "ELEMENT_SET_NO": 999,
        "REV_AT_EPOCH": 71335,
        "BSTAR": 5.8173e-05,
        "MEAN_MOTION_DOT": 7.2e-07,
        "MEAN_MOTION_DDOT": 0
    },
    {
        "OBJECT_NAME": "USA 81",
        "OBJECT_ID": "1992-023A",
        "EPOCH": "2026-06-06T12:24:26.815392",
        "MEAN_MOTION": 14.32395314,
        "ECCENTRICITY": 0.0002731,
        "INCLINATION": 85.0077,
        "RA_OF_ASC_NODE": 80.1652,
        "ARG_OF_PERICENTER": 94.5024,
        "MEAN_ANOMALY": 265.648,
        "EPHEMERIS_TYPE": 0,
        "CLASSIFICATION_TYPE": "U",
        "NORAD_CAT_ID": 21949,
        "ELEMENT_SET_NO": 999,
        "REV_AT_EPOCH": 10750,
        "BSTAR": 6.6646e-05,
        "MEAN_MOTION_DOT": 2e-06,
        "MEAN_MOTION_DDOT": 0
    }
]